KUIPER-00213            
1 67777U 26030P   26073.30152744  .00013896  00000+0  44374-3 0  9990
2 67777  51.8794 197.4637 0015524  79.9270 280.3466 15.32644478  5792
KUIPER-00214            
1 67778U 26030Q   26073.03668780  .00042169  00000+0  11515-2 0  9998
2 67778  51.8827 197.9705 0001271  23.5377 336.5668 15.36997061  5766
KUIPER-00215            
1 67779U 26030R   26073.08031823  .00022564  00000+0  66946-3 0  9992
2 67779  51.8844 198.2526 0010543  73.2504 286.9638 15.34677364  5761
KUIPER-00218            
1 67780U 26030S   26073.06668359  .00039838  00000+0  11447-2 0  9999
2 67780  51.8817 198.1608 0007722  65.4740 294.7050 15.35406979  5761
KUIPER-00220            
1 67781U 26030T   26073.07514325  .00038122  00000+0  11101-2 0  9996
2 67781  51.8783 198.2070 0009740  72.9211 287.2842 15.34994175  5761
KUIPER-00222            
1 67782U 26030U   26073.04637814  .00040332  00000+0  12763-2 0  9994
2 67782  51.8808 198.7517 0017412  80.8451 279.4503 15.32229579  5753
KUIPER-00223            
1 67783U 26030V   26071.78291178  .00037710  00000+0  11229-2 0  9995
2 67783  51.8835 204.5516 0012400  67.4257 292.8039 15.34266835  5566
KUIPER-00225            
1 67784U 26030W   26073.05362199  .00043728  00000+0  12266-2 0  9998
2 67784  51.8803 198.0707 0005024  50.1113 310.0315 15.36131872  5761
KUIPER-00226            
1 67785U 26030X   26073.06618320  .00227464  00000+0  73304-2 0  9991
2 67785  51.8821 198.8802 0018360  81.4693 278.8371 15.30600799  5758
KUIPER-00259            
1 67786U 26030Y   26072.80896494  .00036964  00000+0  10675-2 0  9998
2 67786  51.8834 199.4249 0008112  61.5946 298.5857 15.35282053  5728
KUIPER-00260            
1 67787U 26030Z   26073.04268194  .00033607  00000+0  92881-3 0  9997
2 67787  51.8788 197.9955 0002518  51.5135 308.6078 15.36727767  5676
KUIPER-00262            
1 67788U 26030AA  26073.03800398  .00040160  00000+0  11001-2 0  9991
2 67788  51.8814 197.9691 0001933  51.0265 309.0893 15.36919969  5760
