CCSDS_OMM_VERS = 2.0
CREATION_DATE  = 
ORIGINATOR     = 

OBJECT_NAME    = KUIPER-00213
OBJECT_ID      = 2026-030P
CENTER_NAME    = EARTH
REF_FRAME      = TEME
TIME_SYSTEM    = UTC
MEAN_ELEMENT_THEORY = SGP/SGP4

EPOCH          = 2026-03-14T07:14:11.970816
MEAN_MOTION    = 15.32644478
ECCENTRICITY   = .00155249
INCLINATION    = 51.8794
RA_OF_ASC_NODE = 197.4637
ARG_OF_PERICENTER = 79.9270
MEAN_ANOMALY   = 280.3466

EPHEMERIS_TYPE = 0
CLASSIFICATION_TYPE = U
NORAD_CAT_ID   = 67777
ELEMENT_SET_NO = 999
REV_AT_EPOCH   = 579
BSTAR          = .44374389E-3
MEAN_MOTION_DOT = .13896E-3
MEAN_MOTION_DDOT = 0

CCSDS_OMM_VERS = 2.0
CREATION_DATE  = 
ORIGINATOR     = 

OBJECT_NAME    = KUIPER-00214
OBJECT_ID      = 2026-030Q
CENTER_NAME    = EARTH
REF_FRAME      = TEME
TIME_SYSTEM    = UTC
MEAN_ELEMENT_THEORY = SGP/SGP4

EPOCH          = 2026-03-14T00:52:49.825920
MEAN_MOTION    = 15.36997061
ECCENTRICITY   = .00012719
INCLINATION    = 51.8827
RA_OF_ASC_NODE = 197.9705
ARG_OF_PERICENTER = 23.5377
MEAN_ANOMALY   = 336.5668

EPHEMERIS_TYPE = 0
CLASSIFICATION_TYPE = U
NORAD_CAT_ID   = 67778
ELEMENT_SET_NO = 999
REV_AT_EPOCH   = 576
BSTAR          = .11514535E-2
MEAN_MOTION_DOT = .42169E-3
MEAN_MOTION_DDOT = 0

CCSDS_OMM_VERS = 2.0
CREATION_DATE  = 
ORIGINATOR     = 

OBJECT_NAME    = KUIPER-00215
OBJECT_ID      = 2026-030R
CENTER_NAME    = EARTH
REF_FRAME      = TEME
TIME_SYSTEM    = UTC
MEAN_ELEMENT_THEORY = SGP/SGP4

EPOCH          = 2026-03-14T01:55:39.495072
MEAN_MOTION    = 15.34677364
ECCENTRICITY   = .00105435
INCLINATION    = 51.8844
RA_OF_ASC_NODE = 198.2526
ARG_OF_PERICENTER = 73.2504
MEAN_ANOMALY   = 286.9638

EPHEMERIS_TYPE = 0
CLASSIFICATION_TYPE = U
NORAD_CAT_ID   = 67779
ELEMENT_SET_NO = 999
REV_AT_EPOCH   = 576
BSTAR          = .66945532E-3
MEAN_MOTION_DOT = .22564E-3
MEAN_MOTION_DDOT = 0

CCSDS_OMM_VERS = 2.0
CREATION_DATE  = 
ORIGINATOR     = 

OBJECT_NAME    = KUIPER-00218
OBJECT_ID      = 2026-030S
CENTER_NAME    = EARTH
REF_FRAME      = TEME
TIME_SYSTEM    = UTC
MEAN_ELEMENT_THEORY = SGP/SGP4

EPOCH          = 2026-03-14T01:36:01.462176
MEAN_MOTION    = 15.35406979
ECCENTRICITY   = .00077225
INCLINATION    = 51.8817
RA_OF_ASC_NODE = 198.1608
ARG_OF_PERICENTER = 65.4740
MEAN_ANOMALY   = 294.7050

EPHEMERIS_TYPE = 0
CLASSIFICATION_TYPE = U
NORAD_CAT_ID   = 67780
ELEMENT_SET_NO = 999
REV_AT_EPOCH   = 576
BSTAR          = .11447409E-2
MEAN_MOTION_DOT = .39838E-3
MEAN_MOTION_DDOT = 0

CCSDS_OMM_VERS = 2.0
CREATION_DATE  = 
ORIGINATOR     = 

OBJECT_NAME    = KUIPER-00220
OBJECT_ID      = 2026-030T
CENTER_NAME    = EARTH
REF_FRAME      = TEME
TIME_SYSTEM    = UTC
MEAN_ELEMENT_THEORY = SGP/SGP4

EPOCH          = 2026-03-14T01:48:12.376800
MEAN_MOTION    = 15.34994175
ECCENTRICITY   = .00097408
INCLINATION    = 51.8783
RA_OF_ASC_NODE = 198.2070
ARG_OF_PERICENTER = 72.9211
MEAN_ANOMALY   = 287.2842

EPHEMERIS_TYPE = 0
CLASSIFICATION_TYPE = U
NORAD_CAT_ID   = 67781
ELEMENT_SET_NO = 999
REV_AT_EPOCH   = 576
BSTAR          = .11100613E-2
MEAN_MOTION_DOT = .38122E-3
MEAN_MOTION_DDOT = 0

CCSDS_OMM_VERS = 2.0
CREATION_DATE  = 
ORIGINATOR     = 

OBJECT_NAME    = KUIPER-00222
OBJECT_ID      = 2026-030U
CENTER_NAME    = EARTH
REF_FRAME      = TEME
TIME_SYSTEM    = UTC
MEAN_ELEMENT_THEORY = SGP/SGP4

EPOCH          = 2026-03-14T01:06:47.071296
MEAN_MOTION    = 15.32229579
ECCENTRICITY   = .00174129
INCLINATION    = 51.8808
RA_OF_ASC_NODE = 198.7517
ARG_OF_PERICENTER = 80.8451
MEAN_ANOMALY   = 279.4503

EPHEMERIS_TYPE = 0
CLASSIFICATION_TYPE = U
NORAD_CAT_ID   = 67782
ELEMENT_SET_NO = 999
REV_AT_EPOCH   = 575
BSTAR          = .12763313E-2
MEAN_MOTION_DOT = .40332E-3
MEAN_MOTION_DDOT = 0

CCSDS_OMM_VERS = 2.0
CREATION_DATE  = 
ORIGINATOR     = 

OBJECT_NAME    = KUIPER-00223
OBJECT_ID      = 2026-030V
CENTER_NAME    = EARTH
REF_FRAME      = TEME
TIME_SYSTEM    = UTC
MEAN_ELEMENT_THEORY = SGP/SGP4

EPOCH          = 2026-03-12T18:47:23.577792
MEAN_MOTION    = 15.34266835
ECCENTRICITY   = .00124002
INCLINATION    = 51.8835
RA_OF_ASC_NODE = 204.5516
ARG_OF_PERICENTER = 67.4257
MEAN_ANOMALY   = 292.8039

EPHEMERIS_TYPE = 0
CLASSIFICATION_TYPE = U
NORAD_CAT_ID   = 67783
ELEMENT_SET_NO = 999
REV_AT_EPOCH   = 556
BSTAR          = .11228961E-2
MEAN_MOTION_DOT = .3771E-3
MEAN_MOTION_DDOT = 0

CCSDS_OMM_VERS = 2.0
CREATION_DATE  = 
ORIGINATOR     = 

OBJECT_NAME    = KUIPER-00225
OBJECT_ID      = 2026-030W
CENTER_NAME    = EARTH
REF_FRAME      = TEME
TIME_SYSTEM    = UTC
MEAN_ELEMENT_THEORY = SGP/SGP4

EPOCH          = 2026-03-14T01:17:12.939936
MEAN_MOTION    = 15.36131872
ECCENTRICITY   = .00050243
INCLINATION    = 51.8803
RA_OF_ASC_NODE = 198.0707
ARG_OF_PERICENTER = 50.1113
MEAN_ANOMALY   = 310.0315

EPHEMERIS_TYPE = 0
CLASSIFICATION_TYPE = U
NORAD_CAT_ID   = 67784
ELEMENT_SET_NO = 999
REV_AT_EPOCH   = 576
BSTAR          = .12266494E-2
MEAN_MOTION_DOT = .43728E-3
MEAN_MOTION_DDOT = 0

CCSDS_OMM_VERS = 2.0
CREATION_DATE  = 
ORIGINATOR     = 

OBJECT_NAME    = KUIPER-00226
OBJECT_ID      = 2026-030X
CENTER_NAME    = EARTH
REF_FRAME      = TEME
TIME_SYSTEM    = UTC
MEAN_ELEMENT_THEORY = SGP/SGP4

EPOCH          = 2026-03-14T01:35:18.228480
MEAN_MOTION    = 15.30600799
ECCENTRICITY   = .001836
INCLINATION    = 51.8821
RA_OF_ASC_NODE = 198.8802
ARG_OF_PERICENTER = 81.4693
MEAN_ANOMALY   = 278.8371

EPHEMERIS_TYPE = 0
CLASSIFICATION_TYPE = U
NORAD_CAT_ID   = 67785
ELEMENT_SET_NO = 999
REV_AT_EPOCH   = 575
BSTAR          = .73304492E-2
MEAN_MOTION_DOT = .227464E-2
MEAN_MOTION_DDOT = 0

CCSDS_OMM_VERS = 2.0
CREATION_DATE  = 
ORIGINATOR     = 

OBJECT_NAME    = KUIPER-00259
OBJECT_ID      = 2026-030Y
CENTER_NAME    = EARTH
REF_FRAME      = TEME
TIME_SYSTEM    = UTC
MEAN_ELEMENT_THEORY = SGP/SGP4

EPOCH          = 2026-03-13T19:24:54.570816
MEAN_MOTION    = 15.35282053
ECCENTRICITY   = .00081127
INCLINATION    = 51.8834
RA_OF_ASC_NODE = 199.4249
ARG_OF_PERICENTER = 61.5946
MEAN_ANOMALY   = 298.5857

EPHEMERIS_TYPE = 0
CLASSIFICATION_TYPE = U
NORAD_CAT_ID   = 67786
ELEMENT_SET_NO = 999
REV_AT_EPOCH   = 572
BSTAR          = .10674873E-2
MEAN_MOTION_DOT = .36964E-3
MEAN_MOTION_DDOT = 0

CCSDS_OMM_VERS = 2.0
CREATION_DATE  = 
ORIGINATOR     = 

OBJECT_NAME    = KUIPER-00260
OBJECT_ID      = 2026-030Z
CENTER_NAME    = EARTH
REF_FRAME      = TEME
TIME_SYSTEM    = UTC
MEAN_ELEMENT_THEORY = SGP/SGP4

EPOCH          = 2026-03-14T01:01:27.719616
MEAN_MOTION    = 15.36727767
ECCENTRICITY   = .00025183
INCLINATION    = 51.8788
RA_OF_ASC_NODE = 197.9955
ARG_OF_PERICENTER = 51.5135
MEAN_ANOMALY   = 308.6078

EPHEMERIS_TYPE = 0
CLASSIFICATION_TYPE = U
NORAD_CAT_ID   = 67787
ELEMENT_SET_NO = 999
REV_AT_EPOCH   = 567
BSTAR          = .92881457E-3
MEAN_MOTION_DOT = .33607E-3
MEAN_MOTION_DDOT = 0

CCSDS_OMM_VERS = 2.0
CREATION_DATE  = 
ORIGINATOR     = 

OBJECT_NAME    = KUIPER-00262
OBJECT_ID      = 2026-030AA
CENTER_NAME    = EARTH
REF_FRAME      = TEME
TIME_SYSTEM    = UTC
MEAN_ELEMENT_THEORY = SGP/SGP4

EPOCH          = 2026-03-14T00:54:43.543872
MEAN_MOTION    = 15.36919969
ECCENTRICITY   = .00019336
INCLINATION    = 51.8814
RA_OF_ASC_NODE = 197.9691
ARG_OF_PERICENTER = 51.0265
MEAN_ANOMALY   = 309.0893

EPHEMERIS_TYPE = 0
CLASSIFICATION_TYPE = U
NORAD_CAT_ID   = 67788
ELEMENT_SET_NO = 999
REV_AT_EPOCH   = 576
BSTAR          = .11000831E-2
MEAN_MOTION_DOT = .4016E-3
MEAN_MOTION_DDOT = 0

